Corrected accelerogram   75076-b0091-01200.         Chan  1:  Up         from   
Uncorrected Accelerogram Data             Processed: 08/30/01, CDMG  TCU076     
Chi-Chi, Taiwan Earthquake, 21 Sep 1999               (Avol1 v4.6  7/01 CSMIP)  
Taiwan Central Weather Bureau CWB-TSMIP (Origin: 09/20/99 17:47:15.9 UTC; CWB)  
75076-b0091-01200.                   Start time:  9/20/99, 17:46:59.0 UTC       
Station No. 75076   23.908N, 120.676E      A900  s/n   91  (3 Channels)         
Nantou - Nantou School, TCU076                                                  
Chan  1:  Up                                                                    
Chi-Chi, Taiwan Earthquake, 21 Sep 1999    Mon Sep 20, 1999  10:46 PDT          
Hypocenter(CWB): 23.853N,120.816E, H=8km     ML=7.3; MS,MW=7.7; mb=6.5 (CWB)    
Instr Period =  .0222 sec,  Damping =  .700,  Sensitivity = 2.25  v/g           
                        Record length =150.000 sec.                             
                                     Uncor Max  =  -.281 g, at  28.235 sec.     
RMS accel of (uncor) record  =        .                                         
Accelerogram bandpass filtered with 3 dB pts at   .04 and 40.00 cyc/sec         
 15000 points of instrument- and baseline-corrected accel, veloc and displ data 
At equally-spaced intervals of    .010  sec.                                    
Peak acceleration =  -274.893    cm/sec/sec  at   28.230   sec.                 
Peak   velocity   =   -31.685      cm/sec    at   30.380   sec.                 
Peak displacement =   -17.024        cm      at   35.030   sec.                 
Initial velocity  =     -.002   cm/sec;   Initial displacement =    -.004   cm  
Chi-Chi, Taiwan Earthquake, 21 Sep 1999    Mon Sep 20, 1999  10:46 PDT          
                                                                                
75076-b0091-01200.        Nantou - Nantou School, TCU076    Chan  1:  Up        
                                                                                
    1  100    1    3    3  200    1    3    1   16  402   91    075076    0    0
   17   46   59    0  263    9   20 1999    4    7  50032000   39   30   70    0
32000    0   50   50   91    1 -999    0    1    0    0    0    0    0    0    0
    0    0    0    015000    2    0    0    0    0   70   30    0    0    015000
    015000    0    0    0    3    0    0    0    0    3    0    0    0    0    2
    2    2    4    0  107    0    0    0    0    0    4    1    0    0    0    0
   -1   -1    0    0
  .0220000  .7000000 160.00000  .0359510      .000 2250.0000 -.2810614 28.235000
 45.000000 137.32910 61.035160      .000 5.0000000      .000      .000      .000
 4.5000000 -.0055561      .000      .000      .000      .000      .000 -.0185528
 -.0631084 -.0445557 2.0000000 15.000000 23.908000 120.67600  .0528880 8.3822250
 158.49000 -.4388398  .3497285      .000      .000      .000      .000      .000
 589.02170-2.9757760      .000      .000      .000      .000      .000      .000
 4.6000000 1.8000000      .000 980.66500  .0100000 150.00000 7.1619720 -.0109786
      .000 40.000000      .000 150.00000  .0100000  .0400000      .000      .000
 28.230000-274.89280 30.380000-31.685070 35.030000-17.023780 -.0022023  .0400000
 40.000000  .0100000  .0100000 -.0038053 34.160000 3.7469090      .000      .000
      .000      .000      .000      .000      .000      .000      .000      .000
      .000      .000      .000      .000      .000      .000      .000      .000
      .000      .000      .000      .000
 15000 points of accel data equally spaced at  .010 sec, in cm/sec2. (8f10.5)    
[...]
    .10344    .00791    .05487    .07207    .04900    .10114    .12066    .06365
    .13488    .10113    .03913    .09067    .10617    .03748    .06770    .06720
    .01589    .05619    .10339    .08259    .10204    .06684    .07002    .05975
    .02263    .06287    .09258    .05495    .10135    .04112    .05108    .10403
    .11993    .09666    .11848    .09874    .09527    .04882   -.04696    .06230
    .08918    .03554    .11645    .08180    .09176    .07551    .10918    .12503
    .09589    .05645    .08933    .06908    .12380    .12174    .09830    .09205
    .06224    .07125    .11760    .07317    .10296    .11918    .05077    .08709
    .14082    .06859    .12207    .08386    .09585    .08736    .05572    .09605
    .12780    .09505    .09397    .09595    .08762    .08026    .11129    .05053
    .08218    .11740    .12308    .01945    .06810    .11647    .08114    .12379
    .06640   -.00368    .10367    .12824    .02368   -.10588    .05307    .10746
    .06418    .09736    .11206    .06084    .12059    .10776    .12305    .08928
    .08914    .11412    .14809    .11793    .11331    .08911    .08992    .09862
    .09934    .08075    .09467    .11202    .08791    .06167    .13095    .06792
    .03615    .11007    .11687    .05129    .12015    .10697    .10202    .06666
    .08936    .11975    .10032    .09185    .12778    .10040    .14905    .10788
    .05352    .09343    .14274    .04273    .07925    .14154    .11301    .09158
    .09728    .05929    .01028    .04883    .13312    .15192    .08454   -.00692
    .09868    .09690    .12494    .14628    .08822    .06297    .08600    .02822
    .06318    .07998    .12335    .08189    .10943    .10154    .08511    .09806
    .12845    .10723    .12780    .11110    .10436    .15203    .17691    .11667
    .11059    .10183    .09773    .09630    .11287    .11119    .15027    .11727
    .13056    .08426    .09188    .02218    .01677    .06542    .12025    .11344
    .12554    .10283    .05690   -.01769    .06771    .11664    .08140    .09261
    .16142    .09340    .04400    .02439    .09487    .09431    .07706    .13345
    .14492    .07783    .08309    .09358    .11711    .12413    .10906    .10711
    .09911    .00964    .05999    .06423    .12086    .13338    .14814    .08718
    .11207    .12462    .07815    .04282    .10268    .08499    .05686    .09917
    .13727    .10591    .13217    .10583    .11651    .04528    .09703    .14846
    .09317    .08273    .08489   -.00028    .09248    .11784    .09036    .13669
    .05613   -.04968    .07568    .06786    .10895    .08286    .07008    .09679
    .07232    .09353    .11511    .05009    .11395    .06022    .04951    .02862
    .08913    .13195    .13204    .08122    .06150    .03176    .08929    .07087
    .11739    .15998    .13564    .10953    .12541    .10034    .14852    .13720
    .12684    .12156    .13149    .08176    .07428    .05745    .10412    .07475
    .09000    .09640    .08181    .05634    .12178    .08211    .06978   -.00592
    .01112    .09842    .13334    .12201    .10147    .07220    .14827    .12230
    .11116    .06260    .08765    .10750    .10779    .08798    .11513    .07919
    .11132    .07527    .09838    .09954    .11194    .09656    .12054    .02959
    .06324    .11178    .12561    .06996    .08620    .11304    .08418    .05506
    .11297    .09627    .12565    .11772    .14832    .09997    .06195    .08097
    .12248    .08387    .10179    .06991    .13352    .07632    .11526    .13606
    .07140    .07435    .15031    .07528    .13164    .06472    .10628    .09273
    .05146    .11233    .12997    .05951    .11540    .09029    .11501    .11758
    .06522    .09870    .12197    .06903    .12915    .05572    .03343    .09103
    .03716    .02503    .08423    .03864    .11461    .10389    .14564    .08403
    .06410    .10681   -.00370   -.10151   -.21774   -.37535   -.31433   -.22722
   -.50853  -2.44607  -8.42559 -22.74162 -36.32848 -19.33632  21.17865  37.76492
  30.29834  18.50978   3.75503  -3.58958  -9.99815 -26.55378 -23.31434  -3.47319
  -3.11483 -25.61550 -43.90794 -28.40573  -8.07560   -.40490   5.13331  23.40583
  54.73167  66.33205  17.81468 -26.50436  -2.40221  42.35210  49.49422  29.71171
 -19.64626 -51.96228 -40.95198 -34.91062 -43.01931 -59.45889 -54.56425 -18.89749
  35.66748  61.92201  59.06726  36.60181 -16.13412 -75.27868 -89.37580 -47.57925
  48.24638 119.62400 106.52590  28.25714 -47.34601 -54.01516  -3.08772  13.27921
 -14.23770 -19.56897 -14.62293 -23.17455 -51.98153 -59.49043   1.79225  77.88585
  59.19057   4.61043  12.55644   4.40538 -10.10858  11.46416  37.09351  48.66085
  81.75620  97.72314  32.92828 -33.79987 -91.65247-119.63390 -97.58923 -42.21023
  17.61415  18.53551 -10.89913 -46.58305 -66.24821 -31.22494  15.05995  27.87594
  49.45604  72.72179  21.97029 -28.76260 -36.47557 -42.89648 -35.02874 -12.66065
  23.74472  55.30580  68.86671  53.28481   5.12684 -50.79974 -33.82259   7.14176
   6.95823   8.78032   1.97169 -10.35873 -36.88406 -53.13179 -22.94849  39.57571
  66.32141  51.81664   8.64739 -53.79411 -89.07494 -75.84065 -38.73468  -2.20343
  62.00084  67.70833  18.22595   4.70972 -23.97191 -10.46108  25.16471  22.38175
  22.60653  25.22551   3.59742 -44.09299 -64.04123 -44.10755 -21.68856  15.95082
  60.63771  46.47778  42.92805  30.45270 -21.66124 -65.64227 -62.88985 -42.36783
 -24.97396  11.74225  22.03156  38.39404  40.25875  25.92429  32.75726  83.13232
  85.03529   2.37362 -36.65261 -42.00641 -42.65939 -39.32571 -44.26611 -59.16690
 -44.53808   -.65731   3.61497 -16.37612  -2.12424  32.59740  33.97522  14.45311
  11.36913  30.29978  63.52883  42.65956 -16.75091 -84.33879-113.41700 -34.38724
  29.81779  11.64805   3.08986   1.38597  -9.05240 -13.13382   9.02405  15.59429
 -14.29092  -4.97525  13.81533  -4.18410   5.58705  36.03574  59.41355  52.93733
  17.19853 -38.43834 -95.94777 -96.82909 -67.64372 -15.46945  39.51314  63.78028
 110.43410 112.87440  30.77105 -46.17652 -77.94575  -5.84944  72.05370  83.94975
  85.96198  23.68265   4.25772  22.67549   2.31414  -8.68812 -22.31800 -29.38545
 -61.64351 -75.78466 -56.83246 -28.05030  12.87040  35.07043  52.03540  52.66093
  20.50876 -53.78603 -95.28345 -86.64953 -28.47289  55.50225  81.88085  43.24519
 -38.03464 -34.48603  12.12524  -4.81427   9.63667  44.61619  43.13182  27.87615
  14.84994 -26.67097 -56.67546 -56.00208 -58.25254 -27.73639  27.61577  80.76614
  79.01398  45.87327  23.27641   5.35955 -36.59887 -60.96179 -55.88305 -38.39036
 -17.52921 -36.94285 -48.09105 -18.48547  20.04101  28.64300  27.53897  23.51036
  20.50542   7.66581  -3.92486    .59063 -37.59837 -72.10300 -64.35554 -78.21435
 -55.47302  59.30024 111.71790  37.85369 -15.69948  31.93502  62.36757 -19.71865
 -60.43953  -9.57407  -1.17518 -24.19285 -54.53542 -92.82574 -41.70111  59.74176
  79.20248  48.75578  15.88305 -35.90849 -65.41058 -71.08187 -44.56823  29.42063
  59.06649  32.21748  44.83332  43.59169  13.92317 -11.40627 -11.57983  46.91619
  60.25992  41.58083  47.23206  39.21240  -5.56222 -23.41411 -27.56755  -7.66219
  35.46537  10.32033 -42.10659 -68.65710 -23.20083  48.94331  89.19456  64.05583
 -20.04881 -59.47496 -60.86826 -42.40638 -24.93650 -16.40582 -14.13989   8.97526
  88.44498 166.53950 132.74280  11.47956 -79.68240 -84.50795 -49.25951 -24.27001
 -10.69222  33.61630  95.46237  63.00010 -41.11072-134.64350-106.21940   4.03179
  25.70637  12.16725  14.26980  40.38935  21.74019 -24.78120 -63.81185 -82.26239
 -20.38826   8.51544 -43.04639 -67.71671 -48.77050 -13.01773   7.10305  45.14556
  87.22430  59.83477  41.87146  62.91185  54.39484   -.68510 -33.62591 -34.25226
 -42.82038 -22.51583 -10.92891 -37.61168 -34.02383   5.49017  18.20217  21.27718
  39.71305  23.85470   7.66706   2.33962 -58.47571-110.67420 -77.01094 -45.18583
 -27.21824  21.29460  60.00071  55.79755   4.20761 -39.01439 -32.21680 -30.64382
 -30.30258 -30.19482 -27.44311 -16.52365  -7.62661   8.02647 -24.09591 -38.89881
  -7.00903  31.51147  67.07763  75.28933  82.32835 101.29690  74.78173  -3.32959
 -35.08087 -21.46183  -8.44965   8.62684  -5.25745 -18.02250 -18.73119  -5.48168
  39.38336  58.44041  96.45428 108.38920  71.95902  56.94112  46.82766  71.93813
  54.53455  -3.95186 -34.26387 -45.47923  -4.18625  55.80107  54.96922  50.57032
  51.14238  13.33334 -34.05500 -94.37731-108.44600 -70.83443 -45.39522 -31.16485
 -37.17359 -33.83053   -.22459 -11.30385 -41.49921 -50.15890 -48.33969 -56.14133
 -57.89948 -29.92705 -12.51710 -28.91592 -51.53553 -42.97589  -9.19807  21.24288
  47.44046  71.79125  38.79379 -31.08044 -46.55752-102.52370-175.31560-128.96290
-103.75490-112.32170 -54.08311 -12.46849   5.15399  31.86152  10.36970 -34.68750
   3.30222  25.47331   6.45127  -3.95962 -29.93417 -69.87599 -71.12330 -40.99587
 -14.70856  32.51931  34.58925  -4.79411 -32.54362 -53.95329 -76.44984 -78.72592
 -26.21606  44.22704  68.72545  41.29059 -15.64982 -71.68011 -80.72881 -50.00551
   3.61846  31.60360  49.97366  78.13895  65.87354  47.40720  62.88463  80.82074
  94.01566 109.62370 112.11810 108.57970 117.19770 132.13910 109.00100  54.80363
  52.73714 101.55800 127.93740 125.71230 108.22300  76.44091  37.14889   9.29949
   8.74956  32.62362  73.52537 114.48490 157.13020 155.72050  98.71804  38.80993
  -9.02276 -22.19730 -19.07224 -18.24687    .61333   8.31476 -22.66747 -50.40024
 -51.37801 -41.54371 -46.54615 -42.84353 -23.44094 -23.03096 -35.20736 -56.42151
 -94.67772-131.01610-123.97420 -89.52579 -61.18285 -31.94593  -8.79880 -25.65402
 -83.73346-120.73000-104.39850 -46.46442   9.40459   -.03183 -64.35344-112.75320
-121.46310 -95.66483 -42.20135  21.54430  51.82606  40.73036   9.32109 -48.18155
 -90.84700-119.45830-134.81090 -99.12416 -45.08298 -11.24809 -14.73378 -46.24066
 -70.48126 -52.15209   2.98405  81.79436 126.11830 113.96690  53.03339  -8.47452
 -30.06031 -51.73497 -38.45393 -10.57094  -4.64688   6.97117   3.94632 -14.80085
 -32.44893 -40.37691 -20.36960  18.60608  61.27968  81.15639  59.78452  32.94870
  23.67087  22.85431  15.12391   1.62528  -9.78000 -33.33958 -50.42617 -14.43837
  41.99858  73.98199  77.24178  61.61554  57.53518  74.70549  60.05283  25.66513
  15.81851  20.76372  33.53584  74.11648 111.85560  94.79292  53.37523  21.90012
   5.37066   4.01743   9.11741  20.85441  18.59944  -7.18964 -15.49190   -.74094
   4.65095  14.37900  25.66241   7.32843 -35.41942 -61.28279 -52.82185 -55.37297
 -76.77802 -82.83508 -49.82568 -15.40120  -7.65887  25.10929  55.71643  38.42575
  15.66157   6.04601 -14.91853 -16.75151  22.55972  63.94088  89.64855  88.78265
  66.22868  76.24294 125.35540 162.34900 165.20480 140.10370  90.03017  25.00126
 -23.57813 -43.35371 -28.00215   1.61939  17.36242  33.88640  54.78905  55.30326
  69.42190  92.71767 106.33130 139.45730 150.85240 131.90260  98.37416  65.17412
  20.26489 -32.08170 -70.45496 -80.73060 -41.30091  37.49442 116.79610 164.70860
 166.77010  92.10906  -3.43116 -32.94135   5.41881  59.34121  76.27769  79.77186
  54.16578  -6.76220 -35.86226 -46.23680 -59.83691 -67.49349 -55.76709 -38.98807
  -9.92136  37.81787  63.28381  73.82200  95.66155  98.29348  72.03204  57.86937
  48.92827  19.03295 -33.84856-116.60370-198.45880-199.84900-139.36830 -82.99400
 -15.63316  11.93238 -37.78307 -54.68817 -28.66998 -32.25785 -51.58857 -75.70130
-114.93010-140.42940-143.10300-149.83380-169.39790-196.58980-250.09960-274.89280
-165.14840  -3.77447  95.76687 103.56610  31.05974 -57.11560-105.60230-125.33490
-149.01900-125.47190 -30.97582  41.20840  51.63930  17.94904 -41.87925 -77.07379
 -62.79543 -31.09427  26.44049  92.58218  97.64670  66.53696  54.74726  78.38720
 106.48810 101.57780  66.95544  17.93842 -28.95650 -83.95275-127.52450 -68.41829
  75.06689 153.76510 167.23800 114.69820  15.73484 -20.66568 -17.05381 -19.77801
 -12.12007    .47101  15.68456  20.84576  12.94619  38.24285  58.93999  71.17204
  98.58862  87.85088  49.34508  28.00137  35.87663  32.99674  26.34956  37.49286
  32.78982   8.42055 -20.56728 -63.09801-114.54720-133.31900-107.30140 -45.15760
  -2.69228  -1.55132  -5.88654 -43.89684 -96.19474-101.42180 -91.18137 -64.53470
  11.89183  86.22983 116.73150 102.47490  47.26099 -19.48364 -65.33611 -58.52280
   2.07655  71.67051 114.05440 139.35410 125.86520  72.57935  37.02934  36.34058
  39.21822  38.59042  65.06448 103.55440 122.06800 162.07840 196.18720 150.64560
  82.74101  62.15268  79.00705  79.38379  43.83575  -7.70226 -71.25542-116.56140
-109.37090 -86.80425 -66.70649 -10.32005  33.73929  28.92729  29.73377  57.83305
  69.32661  27.67422 -26.17535 -64.77129 -75.51279 -52.31684 -20.83773   6.95174
  18.62955  14.84284  15.98575  12.77041  -6.59530 -34.12741 -80.65127-123.74150
-138.26590-131.32060 -86.87587 -22.92071  16.82865  26.61367  24.89574  -3.45023
 -71.12003-142.08990-186.47180-180.30400-114.08440 -31.16872  -3.05035 -26.64701
 -53.46914 -94.53017-109.35600 -94.41887 -86.41386 -92.31651-101.44860 -77.83039
 -55.47721 -56.94115 -64.75183 -57.15563 -60.01657 -95.17759 -99.64119 -48.06487
  21.60096 107.89940 158.37420 100.36450   3.48783 -53.36368 -92.64812 -83.72697
 -17.23110   9.93769 -20.25765 -36.97158 -42.99117 -61.88710 -61.49052 -31.69045
  -9.74432  -1.07788  17.05671  20.33453 -38.02744 -96.28355 -88.50328 -45.57421
 -12.19295  14.08295  16.40541  -3.47120   9.12954  13.78805   -.69107  -1.73343
 -42.18496-104.53320-123.39320-111.80350-137.51550-181.32010-161.23300 -85.32468
 -54.15143 -82.00776-106.72730-112.91280 -92.51080 -23.47671  16.23661 -14.84720
 -65.42411-101.19480-115.92530-128.43290-141.82490-131.49890 -39.12779  65.89883
  93.59550  72.63945  22.48569 -46.01561 -55.94512  29.94055 105.68120 123.22240
 105.17590  41.19619  16.56872  61.21209  79.33975  38.07997 -16.80269 -44.36514
 -30.25870  39.21212 118.39990 118.52220  49.31142 -18.29607 -17.85044  32.47863
  70.51123  89.15404  69.26113  21.98418  16.38803  59.87016  95.26014  90.92191
  67.79255  74.18571  83.50965  52.49128   9.49503   4.88587  66.75723 149.98010
 189.16180 191.08230 149.24070  78.70301   3.25719 -20.33890  33.40910  25.73460
 -39.28909 -23.54721  56.30403  80.75844  70.75282  49.07747 -25.53919 -87.38001
 -79.60110 -43.04682  21.11672 108.99510 133.37970  57.78213 -16.44067 -13.91837
 -24.15232 -87.86785-113.36760 -31.85831  69.26038  45.34724   2.67617  -1.66402
 -59.64441 -83.45592  -3.65577  38.83833  22.21977  49.34411  49.67746   8.02184
  18.47027  34.92531   7.76188   -.06492  30.47383  58.26939  70.40769  35.28103
  -5.24500   8.82964  37.88548  34.17797  32.12296  58.86176  72.40534  21.47336
 -23.81336  18.31398 102.46200 176.49030 199.01800 164.67230 121.46270  88.32273
  75.56707  91.09235 104.21020  84.64038  27.39559    .77415  35.75686  64.78684
  40.62337  26.60443  24.97774  21.80710  61.08320 116.07170 109.66280  53.97632
  14.96023 -28.94515 -61.83276 -61.68306 -46.41249 -14.69919  36.49911  63.60773
  37.12590 -13.91831 -41.38355 -38.21280 -61.43922 -85.53782 -74.91661 -55.75208
 -38.60774   2.33270  71.29554  90.96651  41.33826  -5.39268 -62.93353-130.66370
-117.35550 -22.10714  56.75138  61.09849  11.64092 -55.46688 -84.19144 -51.36916
 -45.58108 -39.05438  17.80608  16.58134 -51.41864 -82.72967 -85.39786 -90.31010
 -84.77212 -63.27248 -27.83619 -13.61813 -35.07148 -37.96870  -5.27185  11.85914
  -1.20112 -39.85708 -92.79144 -92.22108 -32.92350  44.08105  99.12399  51.75169
 -23.11186 -13.13958   -.48617 -42.27964 -54.24102 -30.90645 -52.92304 -81.57596
 -79.09045 -99.08999-116.64970 -99.18105 -26.89227  54.19798  23.28697 -46.50365
 -39.68932 -43.77835 -64.44453 -35.37393  -8.90170   8.42172  16.92638  16.13576
  39.81921  68.70028  80.52142  53.51604  37.32584  45.37439  25.12607  11.04811
  31.30536  34.27770 -24.71207 -90.09738 -91.64272 -56.34478 -31.78561 -20.69810
  -3.59495 -30.72066 -90.29741-123.43250-133.75370-122.50180 -72.55268   4.46674
  31.81486  12.23424   5.14947  28.24933  18.96497 -33.04085 -45.47433 -79.84550
-132.20800-111.23990 -90.13094 -84.39391 -23.95085  19.90858 -12.86399  -5.58250
  52.53999  73.23371  25.86302 -24.19268 -38.54082 -53.32127 -61.81725 -54.59516
 -40.40392 -17.69056 -11.12480  -5.24053  12.05953  25.54754   7.20119 -10.44695
